<?xml version="1.0" encoding="UTF-8"?>
<ndm xmlns:xsi="http://www.w3.org/2001/XMLSchema-instance" xsi:noNamespaceSchemaLocation="https://sanaregistry.org/r/ndmxml_unqualified/ndmxml-2.0.0-master-2.0.xsd">
<omm id="CCSDS_OMM_VERS" version="2.0">
<header><CREATION_DATE/><ORIGINATOR/></header><body><segment><metadata><OBJECT_NAME>ONEWEB-0687</OBJECT_NAME><OBJECT_ID>2024-188B</OBJECT_ID><CENTER_NAME>EARTH</CENTER_NAME><REF_FRAME>TEME</REF_FRAME><TIME_SYSTEM>UTC</TIME_SYSTEM><MEAN_ELEMENT_THEORY>SGP4</MEAN_ELEMENT_THEORY></metadata><data><meanElements><EPOCH>2025-02-25T13:47:38.128704</EPOCH><MEAN_MOTION>14.83733333</MEAN_MOTION><ECCENTRICITY>.0006603</ECCENTRICITY><INCLINATION>86.5747</INCLINATION><RA_OF_ASC_NODE>115.4071</RA_OF_ASC_NODE><ARG_OF_PERICENTER>118.9130</ARG_OF_PERICENTER><MEAN_ANOMALY>241.2757</MEAN_ANOMALY></meanElements><tleParameters><EPHEMERIS_TYPE>0</EPHEMERIS_TYPE><CLASSIFICATION_TYPE>U</CLASSIFICATION_TYPE><NORAD_CAT_ID>61595</NORAD_CAT_ID><ELEMENT_SET_NO>999</ELEMENT_SET_NO><REV_AT_EPOCH>2027</REV_AT_EPOCH><BSTAR>.62297E-3</BSTAR><MEAN_MOTION_DOT>.5178E-4</MEAN_MOTION_DOT><MEAN_MOTION_DDOT>0</MEAN_MOTION_DDOT></tleParameters></data></segment></body></omm>
<omm id="CCSDS_OMM_VERS" version="2.0">
<header><CREATION_DATE/><ORIGINATOR/></header><body><segment><metadata><OBJECT_NAME>ONEWEB-0688</OBJECT_NAME><OBJECT_ID>2024-188C</OBJECT_ID><CENTER_NAME>EARTH</CENTER_NAME><REF_FRAME>TEME</REF_FRAME><TIME_SYSTEM>UTC</TIME_SYSTEM><MEAN_ELEMENT_THEORY>SGP4</MEAN_ELEMENT_THEORY></metadata><data><meanElements><EPOCH>2025-02-25T13:52:18.896736</EPOCH><MEAN_MOTION>14.83734984</MEAN_MOTION><ECCENTRICITY>.0006106</ECCENTRICITY><INCLINATION>86.5758</INCLINATION><RA_OF_ASC_NODE>115.4301</RA_OF_ASC_NODE><ARG_OF_PERICENTER>118.9894</ARG_OF_PERICENTER><MEAN_ANOMALY>241.1942</MEAN_ANOMALY></meanElements><tleParameters><EPHEMERIS_TYPE>0</EPHEMERIS_TYPE><CLASSIFICATION_TYPE>U</CLASSIFICATION_TYPE><NORAD_CAT_ID>61596</NORAD_CAT_ID><ELEMENT_SET_NO>999</ELEMENT_SET_NO><REV_AT_EPOCH>2004</REV_AT_EPOCH><BSTAR>.61334E-3</BSTAR><MEAN_MOTION_DOT>.5098E-4</MEAN_MOTION_DOT><MEAN_MOTION_DDOT>0</MEAN_MOTION_DDOT></tleParameters></data></segment></body></omm>
<omm id="CCSDS_OMM_VERS" version="2.0">
<header><CREATION_DATE/><ORIGINATOR/></header><body><segment><metadata><OBJECT_NAME>ONEWEB-0689</OBJECT_NAME><OBJECT_ID>2024-188D</OBJECT_ID><CENTER_NAME>EARTH</CENTER_NAME><REF_FRAME>TEME</REF_FRAME><TIME_SYSTEM>UTC</TIME_SYSTEM><MEAN_ELEMENT_THEORY>SGP4</MEAN_ELEMENT_THEORY></metadata><data><meanElements><EPOCH>2025-02-25T14:00:01.000224</EPOCH><MEAN_MOTION>13.98343277</MEAN_MOTION><ECCENTRICITY>.0004315</ECCENTRICITY><INCLINATION>87.1648</INCLINATION><RA_OF_ASC_NODE>118.3491</RA_OF_ASC_NODE><ARG_OF_PERICENTER>118.7769</ARG_OF_PERICENTER><MEAN_ANOMALY>242.2201</MEAN_ANOMALY></meanElements><tleParameters><EPHEMERIS_TYPE>0</EPHEMERIS_TYPE><CLASSIFICATION_TYPE>U</CLASSIFICATION_TYPE><NORAD_CAT_ID>61597</NORAD_CAT_ID><ELEMENT_SET_NO>999</ELEMENT_SET_NO><REV_AT_EPOCH>1991</REV_AT_EPOCH><BSTAR>-.70297E+0</BSTAR><MEAN_MOTION_DOT>-.948714E-2</MEAN_MOTION_DOT><MEAN_MOTION_DDOT>0</MEAN_MOTION_DDOT></tleParameters></data></segment></body></omm>
<omm id="CCSDS_OMM_VERS" version="2.0">
<header><CREATION_DATE/><ORIGINATOR/></header><body><segment><metadata><OBJECT_NAME>ONEWEB-0690</OBJECT_NAME><OBJECT_ID>2024-188E</OBJECT_ID><CENTER_NAME>EARTH</CENTER_NAME><REF_FRAME>TEME</REF_FRAME><TIME_SYSTEM>UTC</TIME_SYSTEM><MEAN_ELEMENT_THEORY>SGP4</MEAN_ELEMENT_THEORY></metadata><data><meanElements><EPOCH>2025-02-25T14:00:01.000224</EPOCH><MEAN_MOTION>14.22857349</MEAN_MOTION><ECCENTRICITY>.0009567</ECCENTRICITY><INCLINATION>87.2362</INCLINATION><RA_OF_ASC_NODE>118.2711</RA_OF_ASC_NODE><ARG_OF_PERICENTER>125.4040</ARG_OF_PERICENTER><MEAN_ANOMALY>205.3294</MEAN_ANOMALY></meanElements><tleParameters><EPHEMERIS_TYPE>0</EPHEMERIS_TYPE><CLASSIFICATION_TYPE>U</CLASSIFICATION_TYPE><NORAD_CAT_ID>61598</NORAD_CAT_ID><ELEMENT_SET_NO>999</ELEMENT_SET_NO><REV_AT_EPOCH>1994</REV_AT_EPOCH><BSTAR>-.28131E+0</BSTAR><MEAN_MOTION_DOT>-.599197E-2</MEAN_MOTION_DOT><MEAN_MOTION_DDOT>0</MEAN_MOTION_DDOT></tleParameters></data></segment></body></omm>
<omm id="CCSDS_OMM_VERS" version="2.0">
<header><CREATION_DATE/><ORIGINATOR/></header><body><segment><metadata><OBJECT_NAME>ONEWEB-0691</OBJECT_NAME><OBJECT_ID>2024-188F</OBJECT_ID><CENTER_NAME>EARTH</CENTER_NAME><REF_FRAME>TEME</REF_FRAME><TIME_SYSTEM>UTC</TIME_SYSTEM><MEAN_ELEMENT_THEORY>SGP4</MEAN_ELEMENT_THEORY></metadata><data><meanElements><EPOCH>2025-02-25T04:00:01.999584</EPOCH><MEAN_MOTION>14.04103839</MEAN_MOTION><ECCENTRICITY>.0006938</ECCENTRICITY><INCLINATION>87.1681</INCLINATION><RA_OF_ASC_NODE>118.4971</RA_OF_ASC_NODE><ARG_OF_PERICENTER>117.3550</ARG_OF_PERICENTER><MEAN_ANOMALY>28.0291</MEAN_ANOMALY></meanElements><tleParameters><EPHEMERIS_TYPE>0</EPHEMERIS_TYPE><CLASSIFICATION_TYPE>U</CLASSIFICATION_TYPE><NORAD_CAT_ID>61599</NORAD_CAT_ID><ELEMENT_SET_NO>999</ELEMENT_SET_NO><REV_AT_EPOCH>2001</REV_AT_EPOCH><BSTAR>-.54302E+0</BSTAR><MEAN_MOTION_DOT>-.811772E-2</MEAN_MOTION_DOT><MEAN_MOTION_DDOT>0</MEAN_MOTION_DDOT></tleParameters></data></segment></body></omm>
<omm id="CCSDS_OMM_VERS" version="2.0">
<header><CREATION_DATE/><ORIGINATOR/></header><body><segment><metadata><OBJECT_NAME>ONEWEB-0692</OBJECT_NAME><OBJECT_ID>2024-188G</OBJECT_ID><CENTER_NAME>EARTH</CENTER_NAME><REF_FRAME>TEME</REF_FRAME><TIME_SYSTEM>UTC</TIME_SYSTEM><MEAN_ELEMENT_THEORY>SGP4</MEAN_ELEMENT_THEORY></metadata><data><meanElements><EPOCH>2025-02-24T22:00:01.999584</EPOCH><MEAN_MOTION>14.03492058</MEAN_MOTION><ECCENTRICITY>.0003626</ECCENTRICITY><INCLINATION>87.1633</INCLINATION><RA_OF_ASC_NODE>118.5885</RA_OF_ASC_NODE><ARG_OF_PERICENTER>130.6086</ARG_OF_PERICENTER><MEAN_ANOMALY>304.5191</MEAN_ANOMALY></meanElements><tleParameters><EPHEMERIS_TYPE>0</EPHEMERIS_TYPE><CLASSIFICATION_TYPE>U</CLASSIFICATION_TYPE><NORAD_CAT_ID>61600</NORAD_CAT_ID><ELEMENT_SET_NO>999</ELEMENT_SET_NO><REV_AT_EPOCH>1991</REV_AT_EPOCH><BSTAR>-.5638E+0</BSTAR><MEAN_MOTION_DOT>-.832323E-2</MEAN_MOTION_DOT><MEAN_MOTION_DDOT>0</MEAN_MOTION_DDOT></tleParameters></data></segment></body></omm>
<omm id="CCSDS_OMM_VERS" version="2.0">
<header><CREATION_DATE/><ORIGINATOR/></header><body><segment><metadata><OBJECT_NAME>ONEWEB-0693</OBJECT_NAME><OBJECT_ID>2024-188H</OBJECT_ID><CENTER_NAME>EARTH</CENTER_NAME><REF_FRAME>TEME</REF_FRAME><TIME_SYSTEM>UTC</TIME_SYSTEM><MEAN_ELEMENT_THEORY>SGP4</MEAN_ELEMENT_THEORY></metadata><data><meanElements><EPOCH>2025-02-25T13:52:56.167968</EPOCH><MEAN_MOTION>14.83733517</MEAN_MOTION><ECCENTRICITY>.0004312</ECCENTRICITY><INCLINATION>86.5672</INCLINATION><RA_OF_ASC_NODE>115.3051</RA_OF_ASC_NODE><ARG_OF_PERICENTER>119.3390</ARG_OF_PERICENTER><MEAN_ANOMALY>240.8264</MEAN_ANOMALY></meanElements><tleParameters><EPHEMERIS_TYPE>0</EPHEMERIS_TYPE><CLASSIFICATION_TYPE>U</CLASSIFICATION_TYPE><NORAD_CAT_ID>61601</NORAD_CAT_ID><ELEMENT_SET_NO>999</ELEMENT_SET_NO><REV_AT_EPOCH>2020</REV_AT_EPOCH><BSTAR>.61388E-3</BSTAR><MEAN_MOTION_DOT>.5102E-4</MEAN_MOTION_DOT><MEAN_MOTION_DDOT>0</MEAN_MOTION_DDOT></tleParameters></data></segment></body></omm>
<omm id="CCSDS_OMM_VERS" version="2.0">
<header><CREATION_DATE/><ORIGINATOR/></header><body><segment><metadata><OBJECT_NAME>ONEWEB-0695</OBJECT_NAME><OBJECT_ID>2024-188J</OBJECT_ID><CENTER_NAME>EARTH</CENTER_NAME><REF_FRAME>TEME</REF_FRAME><TIME_SYSTEM>UTC</TIME_SYSTEM><MEAN_ELEMENT_THEORY>SGP4</MEAN_ELEMENT_THEORY></metadata><data><meanElements><EPOCH>2025-02-24T22:00:01.999584</EPOCH><MEAN_MOTION>14.01917638</MEAN_MOTION><ECCENTRICITY>.0004513</ECCENTRICITY><INCLINATION>87.1713</INCLINATION><RA_OF_ASC_NODE>118.5976</RA_OF_ASC_NODE><ARG_OF_PERICENTER>117.2360</ARG_OF_PERICENTER><MEAN_ANOMALY>244.1874</MEAN_ANOMALY></meanElements><tleParameters><EPHEMERIS_TYPE>0</EPHEMERIS_TYPE><CLASSIFICATION_TYPE>U</CLASSIFICATION_TYPE><NORAD_CAT_ID>61602</NORAD_CAT_ID><ELEMENT_SET_NO>999</ELEMENT_SET_NO><REV_AT_EPOCH>1994</REV_AT_EPOCH><BSTAR>-.56757E+0</BSTAR><MEAN_MOTION_DOT>-.815618E-2</MEAN_MOTION_DOT><MEAN_MOTION_DDOT>0</MEAN_MOTION_DDOT></tleParameters></data></segment></body></omm>

</ndm>
