ONEWEB-0687             
1 61595U 24188B   25056.57474686  .00005178  00000+0  62297-3 0  9993
2 61595  86.5747 115.4071 0006603 118.9130 241.2757 14.83733333 20279
ONEWEB-0688             
1 61596U 24188C   25056.57799649  .00005098  00000+0  61334-3 0  9995
2 61596  86.5758 115.4301 0006106 118.9894 241.1942 14.83734984 20046
ONEWEB-0689             
1 61597U 24188D   25056.58334491 -.00948714  00000+0 -70297+0 0  9994
2 61597  87.1648 118.3491 0004315 118.7769 242.2201 13.98343277 19913
ONEWEB-0690             
1 61598U 24188E   25056.58334491 -.00599197  00000+0 -28131+0 0  9992
2 61598  87.2362 118.2711 0009567 125.4040 205.3294 14.22857349 19946
ONEWEB-0691             
1 61599U 24188F   25056.16668981 -.00811772  00000+0 -54302+0 0  9996
2 61599  87.1681 118.4971 0006938 117.3550  28.0291 14.04103839 20010
ONEWEB-0692             
1 61600U 24188G   25055.91668981 -.00832323  00000+0 -56380+0 0  9994
2 61600  87.1633 118.5885 0003626 130.6086 304.5191 14.03492058 19919
ONEWEB-0693             
1 61601U 24188H   25056.57842787  .00005102  00000+0  61388-3 0  9999
2 61601  86.5672 115.3051 0004312 119.3390 240.8264 14.83733517 20204
ONEWEB-0695             
1 61602U 24188J   25055.91668981 -.00815618  00000+0 -56757+0 0  9992
2 61602  87.1713 118.5976 0004513 117.2360 244.1874 14.01917638 19947
